CSS (TIANHE)            
1 48274U 21035A   23363.35209203  .00038451  00000+0  39092-3 0  9993
2 48274  41.4713  46.8236 0006132  89.8049 270.3494 15.64392625152354
